NOAA 15                 
1 25338U 98030A   20114.49294120  .00000033  00000-0  32282-4 0  9997
2 25338  98.7221 139.8097 0011440  66.1236 294.1141 14.25960133141409
NOAA 18                 
1 28654U 05018A   20114.19501423  .00000069  00000-0  61723-4 0  9990
2 28654  99.0493 170.0925 0014599  31.1887 329.0147 14.12504823769111
METOP-A                 
1 29499U 06044A   20114.46270934  .00000003  00000-0  20760-4 0  9992
2 29499  98.5286 163.1200 0001747  86.5803 333.2172 14.21495785701077
NOAA 19                 
1 33591U 09005A   20114.26581378  .00000018  00000-0  35368-4 0  9991
2 33591  99.1968 118.1757 0013228 227.7974 132.2074 14.12404108577349
METOP-B                 
1 38771U 12049A   20114.16969377  .00000008  00000-0  23800-4 0  9993
2 38771  98.6968 174.3046 0001857 129.8313 323.3775 14.21490748394160
SARAL                   
1 39086U 13009A   20114.81755632 -.00000014  00000-0  11164-4 0  9997
2 39086  98.5437 301.2206 0002024  75.9822 284.1586 14.32024477374180
METOP-C                 
1 43689U 18087A   20114.18855022  .00000009  00000-0  24140-4 0  9997
2 43689  98.7031 174.5717 0003086 128.3657 231.7798 14.21488013 75743
ANGELS                  
1 44876U 19092D   20114.15089532 -.00000067  00000-0  00000-0 0  9995
2 44876  97.4602 298.4371 0011983 199.9144 160.1631 15.16321333 19200
